# From MPC184412
C/2024 G3 (ATLAS),h,01/13.4244/2025,116.8475,220.3541,108.1343,1.000006,0.093581,2000,9.0,4.0
# From MPC186631
C/2024 G4 (PANSTARRS),e,33.0268,152.9787,131.4192,3163,0.0000055,0.99845045,0.0000,03/21.5856/2026,2000,g  8.0,4.0
# From MPEC 2024-JC6
C/2024 G5 (Leonard),e,50.3872,316.3901,209.5844,579.5378,0.0000706,0.99490439,0.0000,09/07.0711/2024,2000,g 13.0,4.0
# From MPC186631
C/2024 G6 (ATLAS),h,02/20.6871/2026,120.4547,250.9518,23.4337,1.002095,6.429919,2000,5.5,4.0
# From MPC184412
C/2024 G7 (ATLAS),h,02/10.0702/2025,131.5137,191.9657,289.6552,1.001909,6.027606,2000,7.0,4.0
# From MPEC 2024-Q05
A/2024 G8,e,97.4188,11.2498,249.1566,141.2205,0.0005873,0.99169750,0.0000,06/15.5742/2024,2000,g 20.0,2.0
# From MPEC 2024-JU4
P/2024 J1 (PANSTARRS),e,13.1598,321.9359,200.3665,3.808673,0.1326000,0.30777556,87.6029,09/02.0/2025,2000,g 14.5,4.0
# From MPC186631
C/2024 J2 (Wierzchos),e,79.2962,189.0579,143.1556,147.3379,0.0005511,0.98770765,0.0000,03/19.7807/2025,2000,g 11.5,4.0
# From MPC186631
C/2024 J3 (ATLAS),h,11/25.3521/2026,75.6414,285.9614,74.0886,1.000637,3.865275,2000,5.0,4.0
# From MPC186631
C/2024 J4 (Lemmon),e,117.5278,19.3082,127.8572,6379,0.0000019,0.99910726,0.0000,04/25.9826/2025,2000,g  8.0,4.0
# From MPEC 2024-LB4
P/2024 K1 (PANSTARRS),e,1.7861,251.6881,351.9168,6.844173,0.0550456,0.49515809,26.4830,09/02.0/2025,2000,g 13.5,4.0
# From MPC186631
C/2024 L1 (PANSTARRS),e,99.1633,45.1394,171.7897,11.46527,0.0253879,0.53354155,3.3488,09/02.0/2025,2000,g 10.0,4.0
# From MPEC 2024-P23
C/2024 L2 (PANSTARRS),e,139.4876,266.2858,345.6102,474.3408,0.0000954,0.98244666,0.0000,06/12.6733/2025,2000,g  7.5,3.2
# From MPEC 2024-RQ6
C/2024 L3 (PANSTARRS),h,11/24.0629/2023,111.5918,294.9974,59.0728,1.003639,6.857830,2000,9.5,4.0
# From MPC186631
C/2024 L5 (ATLAS),h,03/10.3941/2025,166.5727,139.1781,290.5165,1.037041,3.432436,2000,9.0,4.0
# From MPC185659
C/2024 M1 (ATLAS),e,73.7094,76.2138,345.5851,29.77860,0.0060652,0.94280161,1.7347,09/02.0/2025,2000,g 12.0,4.0
# From MPC186632
C/2024 N1 (PANSTARRS),h,10/18.8578/2025,88.7815,323.0230,91.2516,1.001157,4.398393,2000,10.5,4.0
# From MPC186632
C/2024 N3 (Sarneczky),h,04/11.4720/2025,88.7290,82.6087,86.8887,1.001565,5.014613,2000,8.0,4.0
# From MPC185659
C/2024 N4 (Sarneczky),h,01/10.2825/2025,49.7764,339.6548,116.7183,1.004320,5.397985,2000,7.5,4.0
# From MPEC 2024-PC5
C/2024 O1 (PANSTARRS),h,01/28.3951/2023,59.0806,303.3436,349.8779,1.000468,6.606372,2000,8.5,4.0
# From MPEC 2024-UA9
P/2024 O2 (PANSTARRS),e,28.9774,6.8061,310.7821,7.380557,0.0491553,0.49898791,24.5722,09/02.0/2025,2000,g 12.0,4.0
# From MPEC 2025-A40
P/2024 OC2 (PANSTARRS),e,7.6710,136.6147,258.5419,2.625505,0.2316780,0.77415822,75.9193,09/02.0/2025,2000,g 20.5,4.0
# From MPC186632
C/2024 PN7 (PANSTARRS),e,101.2080,358.5844,74.2732,67.21551,0.0017885,0.97731807,0.0000,12/06.4309/2024,2000,g 15.2,4.0
# From MPEC 2024-UQ8
P/2024 Q1 (PANSTARRS),e,5.0093,23.0789,284.6143,3.523049,0.1490479,0.53478487,66.2249,09/02.0/2025,2000,g 17.0,4.0
# From MPC185660
C/2024 Q3 (PANSTARRS),h,03/05.2173/2025,121.3774,337.2883,70.1279,1.001462,2.091563,2000,15.0,4.0
# From MPC186632
C/2024 Q4 (PANSTARRS),e,3.3158,324.2671,133.0532,625.8388,0.0000630,0.99134075,0.0000,11/12.1038/2024,2000,g 10.0,4.0
# From MPEC 2024-TP3
P/2024 R1 (PANSTARRS),e,12.7329,84.9847,230.7596,3.457303,0.1533197,0.49311330,67.9253,09/02.0/2025,2000,g 18.0,4.0
# From MPC182883
P/2024 R2 (PANSTARRS),e,15.1169,192.9944,203.9031,3.148589,0.1764128,0.26871512,59.1684,09/02.0/2025,2000,g 15.5,4.0
# From MPEC 2024-YC7
P/2024 R3 (PANSTARRS),e,14.7105,33.1990,309.4053,3.202375,0.1719870,0.26748351,82.7796,09/02.0/2025,2000,g 15.0,4.0
# From MPC186632
C/2024 R4 (PANSTARRS),h,10/26.6633/2027,95.3666,345.9371,108.9960,1.002579,4.408980,2000,6.5,4.0
# From MPC182883
C/2024 S1 (ATLAS),e,142.1046,347.8629,69.7363,86.68632,0.0012212,0.99990791,0.0000,10/28.4668/2024,2000,g 15.5,4.0
# From MPEC 2025-A40
P/2024 S2 (Rankin),e,7.5262,8.3357,49.1603,5.037204,0.0871806,0.59351943,30.5773,09/02.0/2025,2000,g 15.0,4.0
# From MPC182883
P/2024 T1 (Rankin),e,17.6201,279.7100,164.8657,6.598539,0.0581477,0.65339848,19.5736,09/02.0/2025,2000,g 14.5,4.0
# From MPC184413
P/2024 T2 (Rankin),e,12.9289,113.0608,343.8296,6.171402,0.0642878,0.68040338,17.2080,09/02.0/2025,2000,g 16.0,4.0
# From MPC186632
C/2024 T3 (PANSTARRS),e,53.4562,74.8330,336.8873,88.09610,0.0011920,0.95781838,0.2035,09/02.0/2025,2000,g 11.5,4.0
# From MPC186632
C/2024 T5 (ATLAS),h,05/06.1840/2027,52.3868,100.6802,352.4449,1.002286,3.841010,2000,5.5,4.0
# From MPC182883
C/2024 U1 (PANSTARRS),e,128.7550,270.2636,188.0872,480.6576,0.0000935,0.98993780,0.0000,06/30.4611/2024,2000,g 10.0,4.0
# From MPC186632
A/2024 U2,h,01/15.0994/2026,120.6618,56.0692,29.8118,1.002728,8.179229,2000,12.1,2.0
# From MPC185660
C/2024 V1 (Borisov),e,54.6258,328.1946,168.6694,231.9101,0.0002791,0.99000262,0.0000,04/04.1138/2025,2000,g 14.8,4.0
# From MPEC 2024-YC7
C/2024 V2 (Sarneczky),e,95.9726,102.2007,13.7286,39.33146,0.0039957,0.96839195,1.2074,09/02.0/2025,2000,g 19.0,4.0
# From MPC182883
C/2024 W1 (PANSTARRS),e,83.2011,310.7261,256.7415,44.91312,0.0032745,0.94298430,0.5465,09/02.0/2025,2000,g 15.0,4.0
# From MPC182883
A/2024 W2,h,02/27.4111/2025,116.6121,241.9371,168.0038,1.002345,3.720719,2000,15.6,2.0
# From MPC182884
C/2024 X1 (Fazekas),e,6.4669,351.9583,124.3796,9.444897,0.0339554,0.59590118,1.0060,09/02.0/2025,2000,g 11.3,4.0
# From MPC185660
C/2024 X2 (ATLAS),e,109.2218,122.5224,315.7869,50.64430,0.0027347,0.92740911,0.1534,09/02.0/2025,2000,g  9.6,4.0
# From MPC185660
P/2024 X3 (PANSTARRS),e,2.9723,113.3642,352.9531,6.994013,0.0532862,0.62619874,19.2471,09/02.0/2025,2000,g 14.6,4.0
# From MPEC 2025-A40
C/2024 X4 (PANSTARRS),e,34.6680,258.9443,153.2958,10.06885,0.0308485,0.64199085,0.0019,09/02.0/2025,2000,g 12.6,4.0
# From MPC186632
C/2024 XK14 (Bok),e,109.2142,239.0893,243.4903,17.00578,0.0140543,0.87888691,1.4628,09/02.0/2025,2000,g 15.5,4.0
# From MPC182884
C/2024 Y1 (Masek),e,64.7934,112.5437,238.1258,62.71121,0.0019847,0.98689716,0.0000,11/26.9257/2024,2000,g 17.6,4.0
# From MPC182884
A/2025 A1,h,03/12.6058/2027,33.4413,101.3309,68.1149,1.004233,5.339837,2000,11.8,2.0
# From MPC184414
P/2025 A2 (PANSTARRS),e,20.7345,189.3185,278.0494,5.083621,0.0859893,0.32204282,28.4919,09/02.0/2025,2000,g 13.2,4.0
# From MPC184414
C/2025 A3 (Tsuchinshan),e,9.9763,322.4323,222.3137,10.19535,0.0302762,0.43187585,354.1235,09/02.0/2025,2000,g  9.0,4.0
# From MPC185660
C/2025 A4 (PANSTARRS),e,32.0252,69.9139,102.8004,11.05563,0.0268120,0.65408954,6.2153,09/02.0/2025,2000,g 12.4,4.0
# From MPC186632
C/2025 A6 (Lemmon),e,143.6637,108.0976,132.9670,121.8873,0.0007324,0.99565238,0.0000,11/08.5385/2025,2000,g 13.2,4.0
# From MPC184414
A/2025 A7,e,133.6525,348.8486,195.5741,4541,0.0000032,0.99936501,0.0000,03/28.1214/2025,2000,g 14.0,2.0
# From MPC182885
C/2025 B1 (PANSTARRS),h,06/26.7622/2025,39.6807,102.8416,23.5250,1.000411,3.530889,2000,12.0,4.0
# From MPC184414
C/2025 B2 (Borisov),h,09/10.0782/2026,91.7515,84.8730,78.7356,1.000328,8.244610,2000,6.2,4.0
# From MPC185660
P/2025 C1 (ATLAS),e,7.5168,9.1007,186.8051,4.195890,0.1146748,0.34554043,23.7860,09/02.0/2025,2000,g 10.8,4.0
# From MPC185660
C/2025 D1 (Groeller),h,05/20.5170/2028,84.4594,312.9004,185.9055,1.002984,14.118134,2000,1.2,4.0
# From MPC182885
P/2025 D2 (PANSTARRS),e,5.3344,256.7331,314.0391,8.923174,0.0369764,0.17893617,317.1088,09/02.0/2025,2000,g  8.2,4.0
# From MPC186632
P/2025 D3 (PANSTARRS),e,9.6436,186.6358,294.4887,3.967321,0.1247263,0.25246727,50.2872,09/02.0/2025,2000,g 14.7,4.0
# From MPC186633
P/2025 D4 (ATLAS),e,15.9401,233.1199,332.8877,8.905377,0.0370873,0.63450152,7.4070,09/02.0/2025,2000,g 13.2,4.0
# From MPC184415
C/2025 D5 (PANSTARRS),e,73.3807,0.7369,211.4935,3237,0.0000054,0.99937830,0.0000,05/13.2919/2025,2000,g 17.6,4.0
# From MPC184415
C/2025 D6 (ATLAS),e,145.7904,151.4873,285.4074,1562,0.0000160,0.99839721,0.0000,12/11.3872/2024,2000,g 13.2,4.0
# From MPC184415
C/2025 E1 (PANSTARRS),e,69.0635,344.5953,274.4212,1479,0.0000173,0.99729655,0.0000,09/23.7320/2026,2000,g  9.7,4.0
# From MPC185661
C/2025 F1 (ATLAS),e,109.2373,122.7055,334.2258,286.7368,0.0002030,0.99626863,0.0000,04/20.4698/2025,2000,g 18.0,4.0
# From MPC184415
C/2025 F2 (SWAN),h,05/01.1605/2025,90.3654,329.8392,153.8369,1.000095,0.333499,2000,11.2,4.0
# From MPC186633
C/2025 J1 (Borisov),e,95.4451,273.9755,166.6201,1135,0.0000258,0.99684609,0.0000,06/11.8156/2026,2000,g  9.1,4.0
# From MPC186633
C/2025 K1 (ATLAS),h,10/08.4391/2025,147.8652,97.5559,271.0208,1.000294,0.334222,2000,12.2,4.0
# From MPC186633
C/2025 K2 (PANSTARRS),e,113.9790,113.8286,232.4652,25.35123,0.0077216,0.88704031,359.5883,09/02.0/2025,2000,g 13.7,4.0
# From MPC186633
C/2025 K3 (PANSTARRS),h,12/14.4215/2028,104.9340,350.6238,188.6173,1.001006,3.469370,2000,6.4,4.0
# From MPC186633
C/2025 K4 (Siverd),e,38.4807,297.1765,326.4887,39.59611,0.0039557,0.93603547,0.1456,09/02.0/2025,2000,g 14.1,4.0
# From MPC186633
C/2025 L1 (ATLAS),h,01/12.7494/2026,114.1374,208.1076,341.2601,1.001327,1.679471,2000,11.4,4.0
# From MPC186633
C/2025 L2,e,86.5834,134.9852,232.6427,512.5215,0.0000849,0.99447114,0.0000,12/20.6604/2025,2000,g 11.7,4.0
# From MPC186633
C/2025 M1 (PANSTARRS),e,64.8997,66.9586,230.4213,5582,0.0000024,0.99805986,0.0000,08/03.1688/2029,2000,g  2.9,4.0
# From MPC186633
C/2025 M2 (PANSTARRS),h,11/22.7401/2027,173.2176,305.5295,96.6815,1.003471,2.721744,2000,13.4,4.0
# From MPC185662
C/2025 M3 (PANSTARRS),e,137.0456,65.4337,198.1908,304.0286,0.0001859,0.97886233,0.0000,08/05.2947/2026,2000,g  9.0,4.0
# From MPC186633
C/2025 N2 (ATLAS),e,81.7004,94.5259,232.1478,1126,0.0000261,0.99199364,0.0000,01/20.2898/2025,2000,g  5.1,4.0
# From MPEC 2025-QN1
C/2025 O2 (MAPS),h,05/24.0611/2025,134.5662,332.2786,280.3546,1.002453,2.291058,2000,14.3,4.0
# From MPEC 2025-Q30
A/2025 P1,e,117.7932,342.4168,334.5268,56.76137,0.0023048,0.96166741,0.3583,09/02.0/2025,2000,g 17.1,4.0
# From MPEC 2025-R19
